{
    "links": {
        "self": "http://www.neowsapp.com/rest/v1/neo/3819671?api_key=iIulBulltgU6a56xZRHN4H3l9WmuAYTsLGpBGhQ2"
    },
    "id": "3819671",
    "neo_reference_id": "3819671",
    "name": "(2018 GU11)",
    "designation": "2018 GU11",
    "nasa_jpl_url": "http://ssd.jpl.nasa.gov/sbdb.cgi?sstr=3819671",
    "absolute_magnitude_h": 28.391,
    "estimated_diameter": {
        "kilometers": {
            "estimated_diameter_min": 0.0055764136,
            "estimated_diameter_max": 0.0124692398
        },
        "meters": {
            "estimated_diameter_min": 5.5764135859,
            "estimated_diameter_max": 12.4692398487
        },
        "miles": {
            "estimated_diameter_min": 0.0034650217,
            "estimated_diameter_max": 0.007748024
        },
        "feet": {
            "estimated_diameter_min": 18.2953207492,
            "estimated_diameter_max": 40.9095808654
        }
    },
    "is_potentially_hazardous_asteroid": false,
    "close_approach_data": [
        {
            "close_approach_date": "2018-04-14",
            "close_approach_date_full": "2018-Apr-14 22:44",
            "epoch_date_close_approach": 1523745840000,
            "relative_velocity": {
                "kilometers_per_second": "12.645313118",
                "kilometers_per_hour": "45523.1272249375",
                "miles_per_hour": "28286.3009137396"
            },
            "miss_distance": {
                "astronomical": "0.0054902778",
                "lunar": "2.1357180642",
                "kilometers": "821333.864588286",
                "miles": "510353.1980629068"
            },
            "orbiting_body": "Earth"
        },
        {
            "close_approach_date": "2018-04-15",
            "close_approach_date_full": "2018-Apr-15 05:32",
            "epoch_date_close_approach": 1523770320000,
            "relative_velocity": {
                "kilometers_per_second": "12.6704143912",
                "kilometers_per_hour": "45613.4918083168",
                "miles_per_hour": "28342.4499516733"
            },
            "miss_distance": {
                "astronomical": "0.0060080886",
                "lunar": "2.3371464654",
                "kilometers": "898797.257331282",
                "miles": "558486.7183324116"
            },
            "orbiting_body": "Moon"
        }
    ],
    "orbital_data": {
        "orbit_id": "1",
        "orbit_determination_date": "2018-04-30 06:50:40",
        "first_observation_date": "2018-04-12",
        "last_observation_date": "2018-04-13",
        "data_arc_in_days": 1,
        "observations_used": 6,
        "orbit_uncertainty": "8",
        "minimum_orbit_intersection": ".0038886",
        "jupiter_tisserand_invariant": "4.772",
        "epoch_osculation": "2458221.5",
        "eccentricity": ".4196835497803529",
        "semi_major_axis": "1.350427621465454",
        "inclination": "6.351647888277009",
        "ascending_node_longitude": "203.0183870617409",
        "orbital_period": "573.1989622157721",
        "perihelion_distance": ".7836753635673938",
        "perihelion_argument": "77.05738779044395",
        "aphelion_distance": "1.917179879363515",
        "perihelion_time": "2458276.544504318998",
        "mean_anomaly": "325.4290693789152",
        "mean_motion": ".6280541726879181",
        "equinox": "J2000",
        "orbit_class": {
            "orbit_class_type": "APO",
            "orbit_class_description": "Near-Earth asteroid orbits which cross the Earth’s orbit similar to that of 1862 Apollo",
            "orbit_class_range": "a (semi-major axis) > 1.0 AU; q (perihelion) < 1.017 AU"
        }
    },
    "is_sentry_object": false
}